start=new Date('2021-09-30T00:00:00.000Z').valueOf();
sats=[{"CLASSIFICATION_TYPE":"U","ARG_OF_PERICENTER":"77.5505","ELEMENT_SET_NO":"999","MEAN_MOTION_DDOT":"0.0000000000000","BSTAR":"0.00006465300000","EPHEMERIS_TYPE":"0","LAUNCH_DATE":"2021-04-29","PERIOD":"95.593","OBJECT_ID":"2021-036N","MEAN_ANOMALY":"282.5682","NORAD_CAT_ID":"48288","COUNTRY_CODE":"US","RCS_SIZE":"LARGE","INCLINATION":"53.0556","ECCENTRICITY":"0.00017690","OBJECT_TYPE":"PAYLOAD","MEAN_MOTION":"15.06388233","REV_AT_EPOCH":"2379","TIME_SYSTEM":"UTC","GP_ID":"185793230","CENTER_NAME":"EARTH","SITE":"AFETR","EPOCH":"2021-09-29T09:33:24.448032","APOAPSIS":"548.475","TLE_LINE2":"2 48288  53.0556 164.3568 0001769  77.5505 282.5682 15.06388233 23794","RA_OF_ASC_NODE":"164.3568","PERIAPSIS":"546.025","DECAY_DATE":null,"SEMIMAJOR_AXIS":"6925.385","MEAN_MOTION_DOT":"0.00000681","TLE_LINE1":"1 48288U 21036N   21272.39819963  .00000681  00000-0  64653-4 0  9997","FILE":"3134986","MEAN_ELEMENT_THEORY":"SGP4","OBJECT_NAME":"STARLINK-2562","REF_FRAME":"TEME"},{"RCS_SIZE":"LARGE","COUNTRY_CODE":"US","NORAD_CAT_ID":"48289","MEAN_ANOMALY":"283.4541","OBJECT_ID":"2021-036P","PERIOD":"95.592","LAUNCH_DATE":"2021-04-29","EPHEMERIS_TYPE":"0","BSTAR":"0.00008276200000","MEAN_MOTION_DDOT":"0.0000000000000","ELEMENT_SET_NO":"999","ARG_OF_PERICENTER":"76.6691","CLASSIFICATION_TYPE":"U","GP_ID":"185791978","REV_AT_EPOCH":"2379","TIME_SYSTEM":"UTC","MEAN_MOTION":"15.06400157","OBJECT_TYPE":"PAYLOAD","ECCENTRICITY":"0.00021790","INCLINATION":"53.0544","DECAY_DATE":null,"PERIAPSIS":"545.704","SEMIMAJOR_AXIS":"6925.348","RA_OF_ASC_NODE":"164.3764","TLE_LINE2":"2 48289  53.0544 164.3764 0002179  76.6691 283.4541 15.06400157 23796","APOAPSIS":"548.722","SITE":"AFETR","EPOCH":"2021-09-29T09:28:06.188448","CENTER_NAME":"EARTH","REF_FRAME":"TEME","FILE":"3134986","MEAN_ELEMENT_THEORY":"SGP4","OBJECT_NAME":"STARLINK-2545","TLE_LINE1":"1 48289U 21036P   21272.39451607  .00000951  00000-0  82762-4 0  9996","MEAN_MOTION_DOT":"0.00000951"},{"CLASSIFICATION_TYPE":"U","ARG_OF_PERICENTER":"74.5062","ELEMENT_SET_NO":"999","MEAN_MOTION_DDOT":"0.0000000000000","BSTAR":"0.00005214200000","EPHEMERIS_TYPE":"0","LAUNCH_DATE":"2021-04-29","PERIOD":"95.592","OBJECT_ID":"2021-036Q","NORAD_CAT_ID":"48290","MEAN_ANOMALY":"285.6140","COUNTRY_CODE":"US","RCS_SIZE":"LARGE","INCLINATION":"53.0546","ECCENTRICITY":"0.00019290","OBJECT_TYPE":"PAYLOAD","MEAN_MOTION":"15.06398953","TIME_SYSTEM":"UTC","REV_AT_EPOCH":"2375","GP_ID":"185791729","CENTER_NAME":"EARTH","SITE":"AFETR","EPOCH":"2021-09-29T03:00:37.873440","APOAPSIS":"548.553","TLE_LINE2":"2 48290  53.0546 165.6024 0001929  74.5062 285.6140 15.06398953 23759","RA_OF_ASC_NODE":"165.6024","DECAY_DATE":null,"PERIAPSIS":"545.881","SEMIMAJOR_AXIS":"6925.352","MEAN_MOTION_DOT":"0.00000495","TLE_LINE1":"1 48290U 21036Q   21272.12543835  .00000495  00000-0  52142-4 0  9996","OBJECT_NAME":"STARLINK-2540","FILE":"3134986","MEAN_ELEMENT_THEORY":"SGP4","REF_FRAME":"TEME"},{"PERIOD":"95.593","LAUNCH_DATE":"2021-04-29","NORAD_CAT_ID":"48291","MEAN_ANOMALY":"283.4227","OBJECT_ID":"2021-036R","COUNTRY_CODE":"US","RCS_SIZE":"MEDIUM","CLASSIFICATION_TYPE":"U","ARG_OF_PERICENTER":"76.7005","BSTAR":"0.00007686000000","MEAN_MOTION_DDOT":"0.0000000000000","ELEMENT_SET_NO":"999","EPHEMERIS_TYPE":"0","MEAN_MOTION":"15.06391693","OBJECT_TYPE":"PAYLOAD","TIME_SYSTEM":"UTC","REV_AT_EPOCH":"2433","GP_ID":"185803562","INCLINATION":"53.0549","ECCENTRICITY":"0.00021850","RA_OF_ASC_NODE":"165.6092","SEMIMAJOR_AXIS":"6925.374","DECAY_DATE":null,"PERIAPSIS":"545.726","CENTER_NAME":"EARTH","APOAPSIS":"548.752","SITE":"AFETR","EPOCH":"2021-09-29T02:55:20.215200","TLE_LINE2":"2 48291  53.0549 165.6092 0002185  76.7005 283.4227 15.06391693 24335","TLE_LINE1":"1 48291U 21036R   21272.12176175  .00000863  00000-0  76860-4 0  9998","OBJECT_NAME":"STARLINK-2555","FILE":"3135421","MEAN_ELEMENT_THEORY":"SGP4","REF_FRAME":"TEME","MEAN_MOTION_DOT":"0.00000863"},{"TLE_LINE2":"2 48292  53.0549 165.6254 0001960  69.9731 290.1469 15.06405081 23751","CENTER_NAME":"EARTH","EPOCH":"2021-09-29T02:48:39.367584","SITE":"AFETR","APOAPSIS":"548.555","RA_OF_ASC_NODE":"165.6254","SEMIMAJOR_AXIS":"6925.333","DECAY_DATE":null,"PERIAPSIS":"545.841","MEAN_MOTION_DOT":"0.00001074","REF_FRAME":"TEME","TLE_LINE1":"1 48292U 21036S   21272.11712231  .00001074  00000-0  90982-4 0  9993","OBJECT_NAME":"STARLINK-2542","FILE":"3134986","MEAN_ELEMENT_THEORY":"SGP4","ELEMENT_SET_NO":"999","MEAN_MOTION_DDOT":"0.0000000000000","BSTAR":"0.00009098200000","EPHEMERIS_TYPE":"0","CLASSIFICATION_TYPE":"U","ARG_OF_PERICENTER":"69.9731","COUNTRY_CODE":"US","RCS_SIZE":"LARGE","LAUNCH_DATE":"2021-04-29","PERIOD":"95.592","OBJECT_ID":"2021-036S","NORAD_CAT_ID":"48292","MEAN_ANOMALY":"290.1469","ECCENTRICITY":"0.00019600","INCLINATION":"53.0549","REV_AT_EPOCH":"2375","TIME_SYSTEM":"UTC","GP_ID":"185792731","OBJECT_TYPE":"PAYLOAD","MEAN_MOTION":"15.06405081"},{"FILE":"3134986","OBJECT_NAME":"STARLINK-2550","MEAN_ELEMENT_THEORY":"SGP4","TLE_LINE1":"1 48293U 21036T   21272.11437070  .00000079  00000-0  24231-4 0  9997","REF_FRAME":"TEME","MEAN_MOTION_DOT":"0.00000079","DECAY_DATE":null,"PERIAPSIS":"545.682","SEMIMAJOR_AXIS":"6925.322","RA_OF_ASC_NODE":"165.6356","APOAPSIS":"548.691","SITE":"AFETR","EPOCH":"2021-09-29T02:44:41.628480","CENTER_NAME":"EARTH","TLE_LINE2":"2 48293  53.0548 165.6356 0002172  71.4427 288.6798 15.06408802 23751","MEAN_MOTION":"15.06408802","OBJECT_TYPE":"PAYLOAD","GP_ID":"185791479","REV_AT_EPOCH":"2375","TIME_SYSTEM":"UTC","INCLINATION":"53.0548","ECCENTRICITY":"0.00021720","NORAD_CAT_ID":"48293","MEAN_ANOMALY":"288.6798","OBJECT_ID":"2021-036T","PERIOD":"95.592","LAUNCH_DATE":"2021-04-29","RCS_SIZE":"LARGE","COUNTRY_CODE":"US","ARG_OF_PERICENTER":"71.4427","CLASSIFICATION_TYPE":"U","EPHEMERIS_TYPE":"0","BSTAR":"0.00002423100000","MEAN_MOTION_DDOT":"0.0000000000000","ELEMENT_SET_NO":"999"},{"MEAN_MOTION_DOT":"0.00002232","REF_FRAME":"TEME","TLE_LINE1":"1 48294U 21036U   21272.17705768  .00002232  00000-0  16862-3 0  9999","FILE":"3134986","MEAN_ELEMENT_THEORY":"SGP4","OBJECT_NAME":"STARLINK-2533","TLE_LINE2":"2 48294  53.0560 165.3635 0001551  75.4263 284.6897 15.06420905 23760","CENTER_NAME":"EARTH","EPOCH":"2021-09-29T04:14:57.783552","SITE":"AFETR","APOAPSIS":"548.224","RA_OF_ASC_NODE":"165.3635","PERIAPSIS":"546.075","DECAY_DATE":null,"SEMIMAJOR_AXIS":"6925.284","ECCENTRICITY":"0.00015510","INCLINATION":"53.0560","TIME_SYSTEM":"UTC","REV_AT_EPOCH":"2376","GP_ID":"185792229","OBJECT_TYPE":"PAYLOAD","MEAN_MOTION":"15.06420905","MEAN_MOTION_DDOT":"0.0000000000000","ELEMENT_SET_NO":"999","BSTAR":"0.00016862000000","EPHEMERIS_TYPE":"0","CLASSIFICATION_TYPE":"U","ARG_OF_PERICENTER":"75.4263","COUNTRY_CODE":"US","RCS_SIZE":"LARGE","LAUNCH_DATE":"2021-04-29","PERIOD":"95.591","OBJECT_ID":"2021-036U","MEAN_ANOMALY":"284.6897","NORAD_CAT_ID":"48294"},{"EPHEMERIS_TYPE":"0","ELEMENT_SET_NO":"999","MEAN_MOTION_DDOT":"0.0000000000000","BSTAR":"0.00004070500000","ARG_OF_PERICENTER":"71.7452","CLASSIFICATION_TYPE":"U","RCS_SIZE":"LARGE","COUNTRY_CODE":"US","OBJECT_ID":"2021-036V","MEAN_ANOMALY":"288.3750","NORAD_CAT_ID":"48295","LAUNCH_DATE":"2021-04-29","PERIOD":"95.593","ECCENTRICITY":"0.00019620","INCLINATION":"53.0572","GP_ID":"185792481","TIME_SYSTEM":"UTC","REV_AT_EPOCH":"2380","OBJECT_TYPE":"PAYLOAD","MEAN_MOTION":"15.06392475","TLE_LINE2":"2 48295  53.0572 164.1904 0001962  71.7452 288.3750 15.06392475 23809","EPOCH":"2021-09-29T10:31:47.612928","SITE":"AFETR","APOAPSIS":"548.595","CENTER_NAME":"EARTH","DECAY_DATE":null,"SEMIMAJOR_AXIS":"6925.372","PERIAPSIS":"545.878","RA_OF_ASC_NODE":"164.1904","MEAN_MOTION_DOT":"0.00000325","REF_FRAME":"TEME","FILE":"3134986","OBJECT_NAME":"STARLINK-2535","MEAN_ELEMENT_THEORY":"SGP4","TLE_LINE1":"1 48295U 21036V   21272.43874552  .00000325  00000-0  40705-4 0  9992"},{"CENTER_NAME":"EARTH","SITE":"AFETR","EPOCH":"2021-09-29T10:26:28.970592","APOAPSIS":"548.484","TLE_LINE2":"2 48296  53.0561 164.2052 0001818  76.6936 283.4256 15.06396217 23809","RA_OF_ASC_NODE":"164.2052","PERIAPSIS":"545.966","DECAY_DATE":null,"SEMIMAJOR_AXIS":"6925.360","MEAN_MOTION_DOT":"0.00000136","TLE_LINE1":"1 48296U 21036W   21272.43505753  .00000136  00000-0  28010-4 0  9992","OBJECT_NAME":"STARLINK-2546","FILE":"3134986","MEAN_ELEMENT_THEORY":"SGP4","REF_FRAME":"TEME","CLASSIFICATION_TYPE":"U","ARG_OF_PERICENTER":"76.6936","ELEMENT_SET_NO":"999","MEAN_MOTION_DDOT":"0.0000000000000","BSTAR":"0.00002801000000","EPHEMERIS_TYPE":"0","LAUNCH_DATE":"2021-04-29","PERIOD":"95.592","OBJECT_ID":"2021-036W","MEAN_ANOMALY":"283.4256","NORAD_CAT_ID":"48296","COUNTRY_CODE":"US","RCS_SIZE":"LARGE","INCLINATION":"53.0561","ECCENTRICITY":"0.00018180","OBJECT_TYPE":"PAYLOAD","MEAN_MOTION":"15.06396217","TIME_SYSTEM":"UTC","REV_AT_EPOCH":"2380","GP_ID":"185793231"},{"MEAN_ANOMALY":"290.3891","NORAD_CAT_ID":"48297","OBJECT_ID":"2021-036X","PERIOD":"95.592","LAUNCH_DATE":"2021-04-29","RCS_SIZE":"LARGE","COUNTRY_CODE":"US","ARG_OF_PERICENTER":"69.7298","CLASSIFICATION_TYPE":"U","EPHEMERIS_TYPE":"0","BSTAR":"0.00004270400000","MEAN_MOTION_DDOT":"0.0000000000000","ELEMENT_SET_NO":"999","MEAN_MOTION":"15.06397916","OBJECT_TYPE":"PAYLOAD","GP_ID":"185791979","REV_AT_EPOCH":"2380","TIME_SYSTEM":"UTC","INCLINATION":"53.0563","ECCENTRICITY":"0.00018610","PERIAPSIS":"545.931","DECAY_DATE":null,"SEMIMAJOR_AXIS":"6925.355","RA_OF_ASC_NODE":"164.2226","APOAPSIS":"548.509","SITE":"AFETR","EPOCH":"2021-09-29T10:21:10.951200","CENTER_NAME":"EARTH","TLE_LINE2":"2 48297  53.0563 164.2226 0001861  69.7298 290.3891 15.06397916 23806","FILE":"3134986","OBJECT_NAME":"STARLINK-2544","MEAN_ELEMENT_THEORY":"SGP4","TLE_LINE1":"1 48297U 21036X   21272.43137675  .00000354  00000-0  42704-4 0  9995","REF_FRAME":"TEME","MEAN_MOTION_DOT":"0.00000354"}];
